[
    {
        "Altitude(m)": 610405.3255168212,
        "Argument of Periapsis(deg)": 0.0,
        "Eccentricity": 0.0,
        "Inclination(deg)": 60.0,
        "Latitude(deg)": 52.111278430983816,
        "Longitude(deg)": 27.477300946079904,
        "Mean Anomaly(deg)": -245.45450000000002,
        "RAAN(deg)": 355.0,
        "Satellite Name": "Test1 1569",
        "Satellite Number": 1569,
        "Semi-Major Axis(m)": 6980739.136638005,
        "Time(s)": 0
    },
    {
        "Altitude(m)": 610321.8989491153,
        "Argument of Periapsis(deg)": 0.00010418945913296404,
        "Eccentricity": 0.0,
        "Inclination(deg)": 60.0,
        "Latitude(deg)": 51.745994634461354,
        "Longitude(deg)": 28.24619642580351,
        "Mean Anomaly(deg)": -244.83439385453818,
        "RAAN(deg)": 354.99957995086027,
        "Satellite Name": "Test1 1569",
        "Satellite Number": 1569,
        "Semi-Major Axis(m)": 6980739.136638005,
        "Time(s)": 10
    }
]